{
  "type": "FeatureCollection",
  "features": [
    {
      "type": "Feature",
      "properties": {
        "norad_id": 66611,
        "name": "STARLINK-35583",
        "group": "last-30-days",
        "lat": 36.201496078218916,
        "lon": -172.34985387173472,
        "alt_km": 439.1627431763736,
        "timestamp": "2025-12-22T11:33:19.153286+00:00",
        "meta_object_name": "STARLINK-35583",
        "meta_object_id": "2025-270Z",
        "meta_epoch": "2025-12-22T04:00:01.998720",
        "meta_mean_motion": 15.40657038,
        "meta_eccentricity": 0.0001623,
        "meta_inclination": 43.0003,
        "meta_ra_of_asc_node": 137.7024,
        "meta_arg_of_pericenter": 281.2406,
        "meta_mean_anomaly": 190.8452,
        "meta_ephemeris_type": 0,
        "meta_classification_type": "U",
        "meta_norad_cat_id": 66611,
        "meta_element_set_no": 999,
        "meta_rev_at_epoch": 602,
        "meta_bstar": 0.0005702,
        "meta_mean_motion_dot": 0.00023555,
        "meta_mean_motion_ddot": 0,
        "tle_line1": "1 66611U 25270Z   25356.16668980  .00023555  00000+0  57020-3 0  9997",
        "tle_line2": "2 66611  43.0003 137.7024 0001623 281.2406 190.8452 15.40657038  6027"
      },
      "geometry": {
        "type": "Point",
        "coordinates": [
          -172.34985387173472,
          36.201496078218916
        ]
      }
    },
    {
      "type": "Feature",
      "properties": {
        "norad_id": 66612,
        "name": "STARLINK-36039",
        "group": "last-30-days",
        "lat": 5.897726084715532,
        "lon": -49.87336256315056,
        "alt_km": 443.30113185129267,
        "timestamp": "2025-12-22T11:33:19.153309+00:00",
        "meta_object_name": "STARLINK-36039",
        "meta_object_id": "2025-270AA",
        "meta_epoch": "2025-12-22T03:02:09.627648",
        "meta_mean_motion": 15.40704555,
        "meta_eccentricity": 0.0001793,
        "meta_inclination": 43.0006,
        "meta_ra_of_asc_node": 138.5371,
        "meta_arg_of_pericenter": 273.4132,
        "meta_mean_anomaly": 86.6519,
        "meta_ephemeris_type": 0,
        "meta_classification_type": "U",
        "meta_norad_cat_id": 66612,
        "meta_element_set_no": 999,
        "meta_rev_at_epoch": 579,
        "meta_bstar": 6.2807e-05,
        "meta_mean_motion_dot": 2.321e-05,
        "meta_mean_motion_ddot": 0,
        "tle_line1": "1 66612U 25270AA  25356.12650032  .00002321  00000+0  62807-4 0  9991",
        "tle_line2": "2 66612  43.0006 138.5371 0001793 273.4132  86.6519 15.40704555  5798"
      },
      "geometry": {
        "type": "Point",
        "coordinates": [
          -49.87336256315056,
          5.897726084715532
        ]
      }
    },
    {
      "type": "Feature",
      "properties": {
        "norad_id": 66613,
        "name": "STARLINK-36037",
        "group": "last-30-days",
        "lat": -11.14571906388593,
        "lon": -31.36620011358927,
        "alt_km": 444.21131155588773,
        "timestamp": "2025-12-22T11:33:19.153323+00:00",
        "meta_object_name": "STARLINK-36037",
        "meta_object_id": "2025-270AB",
        "meta_epoch": "2025-12-21T11:22:10.567488",
        "meta_mean_motion": 15.40728039,
        "meta_eccentricity": 0.00012938,
        "meta_inclination": 42.9987,
        "meta_ra_of_asc_node": 142.2364,
        "meta_arg_of_pericenter": 234.5292,
        "meta_mean_anomaly": 125.5444,
        "meta_ephemeris_type": 0,
        "meta_classification_type": "U",
        "meta_norad_cat_id": 66613,
        "meta_element_set_no": 999,
        "meta_rev_at_epoch": 569,
        "meta_bstar": 0.00091489288,
        "meta_mean_motion_dot": 0.0003814,
        "meta_mean_motion_ddot": 0,
        "tle_line1": "1 66613U 25270AB  25355.47373342  .00038140  00000+0  91489-3 0  9990",
        "tle_line2": "2 66613  42.9987 142.2364 0001293 234.5292 125.5444 15.40728039  5691"
      },
      "geometry": {
        "type": "Point",
        "coordinates": [
          -31.36620011358927,
          -11.14571906388593
        ]
      }
    },
    {
      "type": "Feature",
      "properties": {
        "norad_id": 66614,
        "name": "STARLINK-36040",
        "group": "last-30-days",
        "lat": -32.44128456076429,
        "lon": 93.14993578389029,
        "alt_km": 445.7766091085268,
        "timestamp": "2025-12-22T11:33:19.153334+00:00",
        "meta_object_name": "STARLINK-36040",
        "meta_object_id": "2025-270AC",
        "meta_epoch": "2025-12-22T02:26:40.684128",
        "meta_mean_motion": 15.40720324,
        "meta_eccentricity": 0.0001466,
        "meta_inclination": 42.9999,
        "meta_ra_of_asc_node": 138.3474,
        "meta_arg_of_pericenter": 283.7425,
        "meta_mean_anomaly": 76.3268,
        "meta_ephemeris_type": 0,
        "meta_classification_type": "U",
        "meta_norad_cat_id": 66614,
        "meta_element_set_no": 999,
        "meta_rev_at_epoch": 563,
        "meta_bstar": 0.0014724,
        "meta_mean_motion_dot": 0.00061743,
        "meta_mean_motion_ddot": 0,
        "tle_line1": "1 66614U 25270AC  25356.10185977  .00061743  00000+0  14724-2 0  9998",
        "tle_line2": "2 66614  42.9999 138.3474 0001466 283.7425  76.3268 15.40720324  5639"
      },
      "geometry": {
        "type": "Point",
        "coordinates": [
          93.14993578389029,
          -32.44128456076429
        ]
      }
    },
    {
      "type": "Feature",
      "properties": {
        "norad_id": 66615,
        "name": "STARLINK-35988",
        "group": "last-30-days",
        "lat": -33.25476824935777,
        "lon": 1.0709033366340353,
        "alt_km": 446.6781213817976,
        "timestamp": "2025-12-22T11:33:19.153347+00:00",
        "meta_object_name": "STARLINK-35988",
        "meta_object_id": "2025-270AD",
        "meta_epoch": "2025-12-22T02:46:02.178336",
        "meta_mean_motion": 15.40720098,
        "meta_eccentricity": 4.62e-05,
        "meta_inclination": 42.9959,
        "meta_ra_of_asc_node": 138.4488,
        "meta_arg_of_pericenter": 300.2362,
        "meta_mean_anomaly": 59.8448,
        "meta_ephemeris_type": 0,
        "meta_classification_type": "U",
        "meta_norad_cat_id": 66615,
        "meta_element_set_no": 999,
        "meta_rev_at_epoch": 563,
        "meta_bstar": 0.0010765,
        "meta_mean_motion_dot": 0.00044958,
        "meta_mean_motion_ddot": 0,
        "tle_line1": "1 66615U 25270AD  25356.11530299  .00044958  00000+0  10765-2 0  9991",
        "tle_line2": "2 66615  42.9959 138.4488 0000462 300.2362  59.8448 15.40720098  5636"
      },
      "geometry": {
        "type": "Point",
        "coordinates": [
          1.0709033366340353,
          -33.25476824935777
        ]
      }
    },
    {
      "type": "Feature",
      "properties": {
        "norad_id": 66616,
        "name": "STARLINK-35391",
        "group": "last-30-days",
        "lat": -18.172944568795195,
        "lon": 115.47147969685057,
        "alt_km": 445.3015479126243,
        "timestamp": "2025-12-22T11:33:19.153357+00:00",
        "meta_object_name": "STARLINK-35391",
        "meta_object_id": "2025-270AE",
        "meta_epoch": "2025-12-22T00:00:00.998784",
        "meta_mean_motion": 15.40663019,
        "meta_eccentricity": 0.0001246,
        "meta_inclination": 43.0002,
        "meta_ra_of_asc_node": 138.8723,
        "meta_arg_of_pericenter": 281.4949,
        "meta_mean_anomaly": 257.7879,
        "meta_ephemeris_type": 0,
        "meta_classification_type": "U",
        "meta_norad_cat_id": 66616,
        "meta_element_set_no": 999,
        "meta_rev_at_epoch": 599,
        "meta_bstar": 0.00066448,
        "meta_mean_motion_dot": 0.00027519,
        "meta_mean_motion_ddot": 0,
        "tle_line1": "1 66616U 25270AE  25356.00001156  .00027519  00000+0  66448-3 0  9999",
        "tle_line2": "2 66616  43.0002 138.8723 0001246 281.4949 257.7879 15.40663019  5991"
      },
      "geometry": {
        "type": "Point",
        "coordinates": [
          115.47147969685057,
          -18.172944568795195
        ]
      }
    },
    {
      "type": "Feature",
      "properties": {
        "norad_id": 66617,
        "name": "STARLINK-35940",
        "group": "last-30-days",
        "lat": -7.834930746727517,
        "lon": -32.898790405604004,
        "alt_km": 449.0735825339898,
        "timestamp": "2025-12-22T11:33:19.153367+00:00",
        "meta_object_name": "STARLINK-35940",
        "meta_object_id": "2025-271A",
        "meta_epoch": "2025-12-22T02:56:43.982592",
        "meta_mean_motion": 15.39678022,
        "meta_eccentricity": 0.0001392,
        "meta_inclination": 53.1598,
        "meta_ra_of_asc_node": 142.8708,
        "meta_arg_of_pericenter": 85.344,
        "meta_mean_anomaly": 274.7724,
        "meta_ephemeris_type": 0,
        "meta_classification_type": "U",
        "meta_norad_cat_id": 66617,
        "meta_element_set_no": 999,
        "meta_rev_at_epoch": 565,
        "meta_bstar": 0.00079141,
        "meta_mean_motion_dot": 0.00031447,
        "meta_mean_motion_ddot": 0,
        "tle_line1": "1 66617U 25271A   25356.12273128  .00031447  00000+0  79141-3 0  9993",
        "tle_line2": "2 66617  53.1598 142.8708 0001392  85.3440 274.7724 15.39678022  5650"
      },
      "geometry": {
        "type": "Point",
        "coordinates": [
          -32.898790405604004,
          -7.834930746727517
        ]
      }
    }
  ]
}